[{"OBJECT_NAME":"SALSAT","OBJECT_ID":"2020-068K","EPOCH":"2026-03-09T22:26:21.804576","MEAN_MOTION":15.28191989,"ECCENTRICITY":0.00082652,"INCLINATION":97.8859,"RA_OF_ASC_NODE":66.0795,"ARG_OF_PERICENTER":295.8051,"MEAN_ANOMALY":64.2334,"EPHEMERIS_TYPE":0,"CLASSIFICATION_TYPE":"U","NORAD_CAT_ID":46495,"ELEMENT_SET_NO":999,"REV_AT_EPOCH":30019,"BSTAR":0.00040842582,"MEAN_MOTION_DOT":0.00011156,"MEAN_MOTION_DDOT":0},{"OBJECT_NAME":"STARLINK-33902","OBJECT_ID":"2025-225L","EPOCH":"2026-03-09T13:18:38.234016","MEAN_MOTION":15.30174696,"ECCENTRICITY":0.00012771,"INCLINATION":53.1574,"RA_OF_ASC_NODE":166.5766,"ARG_OF_PERICENTER":54.8306,"MEAN_ANOMALY":305.2814,"EPHEMERIS_TYPE":0,"CLASSIFICATION_TYPE":"U","NORAD_CAT_ID":65920,"ELEMENT_SET_NO":999,"REV_AT_EPOCH":2438,"BSTAR":0.00060458211,"MEAN_MOTION_DOT":0.00017575,"MEAN_MOTION_DDOT":0}]
